ONEWEB-0549             
1 56051U 23043F   24312.59362231 -.00000947  00000+0 -23244-2 0  9990
2 56051  87.9333   0.8289 0001698  82.2990 277.8337 13.21813237 80739
ONEWEB-0550             
1 56052U 23043G   24312.42959310  .00000089  00000+0  18400-3 0  9997
2 56052  87.9331   0.8640 0001967 100.3841 259.7514 13.21819827 80710
ONEWEB-0551             
1 56053U 23043H   24312.44900744 -.00000031  00000+0 -11637-3 0  9991
2 56053  87.9112  16.0312 0001884  91.8644 268.2702 13.15549230 79258
ONEWEB-0552             
1 56054U 23043J   24312.57468988  .00000154  00000+0  34035-3 0  9996
2 56054  87.9328   0.8447 0002119  94.0114 266.1262 13.21828202 81647
ONEWEB-0553             
1 56055U 23043K   24312.56140304  .00000104  00000+0  23765-3 0  9998
2 56055  87.9109 345.6456 0001527  99.6409 260.4895 13.16595904 81783
ONEWEB-0554             
1 56056U 23043L   24312.39674874  .00000105  00000+0  24115-3 0  9995
2 56056  87.9109 345.7032 0002410 101.7993 258.3409 13.16594783 81747
ONEWEB-0555             
1 56057U 23043M   24312.35874496 -.00000088  00000+0 -26263-3 0  9992
2 56057  87.9106 345.6794 0001517 119.1974 240.9309 13.16595314 81745
ONEWEB-0557             
1 56058U 23043N   24312.52499054  .00000054  00000+0  10690-3 0  9993
2 56058  87.9106 345.6711 0001978 125.7579 234.3736 13.16594837 81762
